ONEWEB-0108             
1 48076U 21025AL  23275.06223600  .00000384  00000+0  10172-2 0  9990
2 48076  87.9059 157.0290 0001804  82.8468 277.2866 13.13468885123818
ONEWEB-0169             
1 48077U 21025AM  23274.71097322 -.00000109  00000+0 -33203-3 0  9990
2 48077  87.9064 157.1007 0001778  88.7628 271.3705 13.13470373122412
ONEWEB-0176             
1 48210U 21031A   23274.87535561  .00000172  00000+0  42982-3 0  9997
2 48210  87.8964 126.6405 0001714  80.6366 279.4957 13.14502508118344
ONEWEB-0184             
1 48211U 21031B   23274.62163216 -.00000168  00000+0 -48652-3 0  9992
2 48211  87.8978 126.6723 0002545  58.7718 301.3661 13.14501091118289
ONEWEB-0179             
1 48212U 21031C   23274.89439702  .00000393  00000+0  10261-2 0  9990
2 48212  87.8975 126.6132 0001426  78.2820 281.8469 13.14503806118362
ONEWEB-0180             
1 48213U 21031D   23274.62374127 -.00000107  00000+0 -32222-3 0  9998
2 48213  87.8977 126.6701 0001459  72.8751 287.2539 13.14504191118216
ONEWEB-0218             
1 48214U 21031E   23274.87322216 -.00000326  00000+0 -91496-3 0  9999
2 48214  87.8975 126.6219 0002268  48.6410 311.4915 13.14501987118400
ONEWEB-0209             
1 48215U 21031F   23274.86265323 -.00000158  00000+0 -46086-3 0  9992
2 48215  87.8970 126.6634 0001529  79.5970 280.5332 13.14505886118401
